{"type": "FeatureCollection", "features": [ {"type": "Feature", "properties": {"norad_id": 35022, "name": "COSMOS 2251 DEB", "group": "cosmos-2251-debris", "lat": -35.907729005740734, "lon": 134.32022945240632, "alt_km": 689.3170415097502, "timestamp": "2025-12-22T23:36:21.112528+00:00", "meta": {"OBJECT_NAME": "COSMOS 2251 DEB", "OBJECT_ID": "1993-036AGK", "EPOCH": "2025-12-15T14:45:27.251136", "MEAN_MOTION": 14.60846809, "ECCENTRICITY": 0.00465822, "INCLINATION": 74.027, "RA_OF_ASC_NODE": 316.4327, "ARG_OF_PERICENTER": 155.4398, "MEAN_ANOMALY": 204.9001, "EPHEMERIS_TYPE": 0, "CLASSIFICATION_TYPE": "U", "NORAD_CAT_ID": 35022, "ELEMENT_SET_NO": 999, "REV_AT_EPOCH": 59185, "BSTAR": 0.00033959453, "MEAN_MOTION_DOT": 1.655e-05, "MEAN_MOTION_DDOT": 0}, "tle": {"line1": "1 35022U 93036AGK 25349.61489874  .00001655  00000+0  33959-3 0  9991", "line2": "2 35022  74.0270 316.4327 0046582 155.4398 204.9001 14.60846809591850"}}, "geometry": {"type": "Point", "coordinates": [134.32022945240632, -35.907729005740734]}}, {"type": "Feature", "properties": {"norad_id": 35023, "name": "COSMOS 2251 DEB", "group": "cosmos-2251-debris", "lat": -37.11004093942372, "lon": 24.43130544041906, "alt_km": 571.9695604304243, "timestamp": "2025-12-22T23:36:21.112538+00:00", "meta": {"OBJECT_NAME": "COSMOS 2251 DEB", "OBJECT_ID": "1993-036AGL", "EPOCH": "2025-12-22T08:27:50.403744", "MEAN_MOTION": 14.95368539, "ECCENTRICITY": 0.00335737, "INCLINATION": 74.0359, "RA_OF_ASC_NODE": 193.1957, "ARG_OF_PERICENTER": 269.6537, "MEAN_ANOMALY": 154.428, "EPHEMERIS_TYPE": 0, "CLASSIFICATION_TYPE": "U", "NORAD_CAT_ID": 35023, "ELEMENT_SET_NO": 999, "REV_AT_EPOCH": 88423, "BSTAR": 0.0015987401, "MEAN_MOTION_DOT": 0.00017855, "MEAN_MOTION_DDOT": 0}, "tle": {"line1": "1 35023U 93036AGL 25356.35266671  .00017855  00000+0  15987-2 0  9998", "line2": "2 35023  74.0359 193.1957 0033573 269.6537 154.4280 14.95368539884239"}}, "geometry": {"type": "Point", "coordinates": [24.43130544041906, -37.11004093942372]}}, {"type": "Feature", "properties": {"norad_id": 35025, "name": "COSMOS 2251 DEB", "group": "cosmos-2251-debris", "lat": -3.5176957908419495, "lon": -136.1262568658241, "alt_km": 693.6978042794817, "timestamp": "2025-12-22T23:36:21.112548+00:00", "meta": {"OBJECT_NAME": "COSMOS 2251 DEB", "OBJECT_ID": "1993-036AGN", "EPOCH": "2025-12-21T12:31:58.633824", "MEAN_MOTION": 14.72748333, "ECCENTRICITY": 0.00855678, "INCLINATION": 73.938, "RA_OF_ASC_NODE": 45.7208, "ARG_OF_PERICENTER": 316.6726, "MEAN_ANOMALY": 42.7738, "EPHEMERIS_TYPE": 0, "CLASSIFICATION_TYPE": "U", "NORAD_CAT_ID": 35025, "ELEMENT_SET_NO": 999, "REV_AT_EPOCH": 88772, "BSTAR": 0.00031209765, "MEAN_MOTION_DOT": 2.075e-05, "MEAN_MOTION_DDOT": 0}, "tle": {"line1": "1 35025U 93036AGN 25355.52220641  .00002075  00000+0  31210-3 0  9991", "line2": "2 35025  73.9380  45.7208 0085567 316.6726  42.7738 14.72748333887720"}}, "geometry": {"type": "Point", "coordinates": [-136.1262568658241, -3.5176957908419495]}}, {"type": "Feature", "properties": {"norad_id": 35026, "name": "COSMOS 2251 DEB", "group": "cosmos-2251-debris", "lat": 65.10164371294404, "lon": -22.487754964297338, "alt_km": 652.2971829812941, "timestamp": "2025-12-22T23:36:21.112559+00:00", "meta": {"OBJECT_NAME": "COSMOS 2251 DEB", "OBJECT_ID": "1993-036AGP", "EPOCH": "2025-12-18T03:45:00.139104", "MEAN_MOTION": 14.53626797, "ECCENTRICITY": 0.0082422, "INCLINATION": 74.047, "RA_OF_ASC_NODE": 308.5764, "ARG_OF_PERICENTER": 60.5026, "MEAN_ANOMALY": 318.4835, "EPHEMERIS_TYPE": 0, "CLASSIFICATION_TYPE": "U", "NORAD_CAT_ID": 35026, "ELEMENT_SET_NO": 999, "REV_AT_EPOCH": 88222, "BSTAR": 6.097601e-05, "MEAN_MOTION_DOT": 2.37e-06, "MEAN_MOTION_DDOT": 0}, "tle": {"line1": "1 35026U 93036AGP 25352.15625161  .00000237  00000+0  60976-4 0  9994", "line2": "2 35026  74.0470 308.5764 0082422  60.5026 318.4835 14.53626797882224"}}, "geometry": {"type": "Point", "coordinates": [-22.487754964297338, 65.10164371294404]}}, {"type": "Feature", "properties": {"norad_id": 35028, "name": "COSMOS 2251 DEB", "group": "cosmos-2251-debris", "lat": -64.17265815610767, "lon": -144.70940393915657, "alt_km": 712.5379883038195, "timestamp": "2025-12-22T23:36:21.112570+00:00", "meta": {"OBJECT_NAME": "COSMOS 2251 DEB", "OBJECT_ID": "1993-036AGR", "EPOCH": "2025-12-21T04:06:01.501344", "MEAN_MOTION": 14.56577596, "ECCENTRICITY": 0.00828284, "INCLINATION": 74.0382, "RA_OF_ASC_NODE": 254.9813, "ARG_OF_PERICENTER": 26.387, "MEAN_ANOMALY": 123.709, "EPHEMERIS_TYPE": 0, "CLASSIFICATION_TYPE": "U", "NORAD_CAT_ID": 35028, "ELEMENT_SET_NO": 999, "REV_AT_EPOCH": 88408, "BSTAR": 7.219211e-05, "MEAN_MOTION_DOT": 3.06e-06, "MEAN_MOTION_DDOT": 0}, "tle": {"line1": "1 35028U 93036AGR 25355.17085071  .00000306  00000+0  72192-4 0  9991", "line2": "2 35028  74.0382 254.9813 0082828  26.3870 123.7090 14.56577596884085"}}, "geometry": {"type": "Point", "coordinates": [-144.70940393915657, -64.17265815610767]}}, {"type": "Feature", "properties": {"norad_id": 35031, "name": "COSMOS 2251 DEB", "group": "cosmos-2251-debris", "lat": -64.12716943949609, "lon": 96.56049351163777, "alt_km": 769.1101640749639, "timestamp": "2025-12-22T23:36:21.112579+00:00", "meta": {"OBJECT_NAME": "COSMOS 2251 DEB", "OBJECT_ID": "1993-036AGU", "EPOCH": "2025-12-17T23:55:41.225088", "MEAN_MOTION": 14.38299529, "ECCENTRICITY": 0.00190755, "INCLINATION": 74.0382, "RA_OF_ASC_NODE": 249.5774, "ARG_OF_PERICENTER": 342.0186, "MEAN_ANOMALY": 18.0291, "EPHEMERIS_TYPE": 0, "CLASSIFICATION_TYPE": "U", "NORAD_CAT_ID": 35031, "ELEMENT_SET_NO": 999, "REV_AT_EPOCH": 65359, "BSTAR": 0.00013785455, "MEAN_MOTION_DOT": 3.94e-06, "MEAN_MOTION_DDOT": 0}, "tle": {"line1": "1 35031U 93036AGU 25351.99700492  .00000394  00000+0  13785-3 0  9991", "line2": "2 35031  74.0382 249.5774 0019075 342.0186  18.0291 14.38299529653593"}}, "geometry": {"type": "Point", "coordinates": [96.56049351163777, -64.12716943949609]}}, {"type": "Feature", "properties": {"norad_id": 35032, "name": "COSMOS 2251 DEB", "group": "cosmos-2251-debris", "lat": 29.863051480475526, "lon": 157.97055225524613, "alt_km": 663.1869678175644, "timestamp": "2025-12-22T23:36:21.112590+00:00", "meta": {"OBJECT_NAME": "COSMOS 2251 DEB", "OBJECT_ID": "1993-036AGV", "EPOCH": "2025-12-22T10:26:48.274080", "MEAN_MOTION": 14.58795664, "ECCENTRICITY": 0.00676936, "INCLINATION": 73.8521, "RA_OF_ASC_NODE": 348.6021, "ARG_OF_PERICENTER": 198.2211, "MEAN_ANOMALY": 312.7288, "EPHEMERIS_TYPE": 0, "CLASSIFICATION_TYPE": "U", "NORAD_CAT_ID": 35032, "ELEMENT_SET_NO": 999, "REV_AT_EPOCH": 87815, "BSTAR": 0.00078651165, "MEAN_MOTION_DOT": 3.765e-05, "MEAN_MOTION_DDOT": 0}, "tle": {"line1": "1 35032U 93036AGV 25356.43528095  .00003765  00000+0  78651-3 0  9991", "line2": "2 35032  73.8521 348.6021 0067693 198.2211 312.7288 14.58795664878155"}}, "geometry": {"type": "Point", "coordinates": [157.97055225524613, 29.863051480475526]}}, {"type": "Feature", "properties": {"norad_id": 35033, "name": "COSMOS 2251 DEB", "group": "cosmos-2251-debris", "lat": -60.42537587497488, "lon": 7.618959871153459, "alt_km": 719.4898681884697, "timestamp": "2025-12-22T23:36:21.112600+00:00", "meta": {"OBJECT_NAME": "COSMOS 2251 DEB", "OBJECT_ID": "1993-036AGW", "EPOCH": "2025-12-19T05:07:27.625152", "MEAN_MOTION": 14.50959586, "ECCENTRICITY": 0.001448, "INCLINATION": 74.0251, "RA_OF_ASC_NODE": 164.3945, "ARG_OF_PERICENTER": 270.8601, "MEAN_ANOMALY": 89.0901, "EPHEMERIS_TYPE": 0, "CLASSIFICATION_TYPE": "U", "NORAD_CAT_ID": 35033, "ELEMENT_SET_NO": 999, "REV_AT_EPOCH": 66021, "BSTAR": 0.00048139, "MEAN_MOTION_DOT": 1.877e-05, "MEAN_MOTION_DDOT": 0}, "tle": {"line1": "1 35033U 93036AGW 25353.21351418  .00001877  00000+0  48139-3 0  9998", "line2": "2 35033  74.0251 164.3945 0014480 270.8601  89.0901 14.50959586660212"}}, "geometry": {"type": "Point", "coordinates": [7.618959871153459, -60.42537587497488]}}, {"type": "Feature", "properties": {"norad_id": 35038, "name": "COSMOS 2251 DEB", "group": "cosmos-2251-debris", "lat": -19.093574124645237, "lon": 18.52914174822791, "alt_km": 738.1245211742962, "timestamp": "2025-12-22T23:36:21.112610+00:00", "meta": {"OBJECT_NAME": "COSMOS 2251 DEB", "OBJECT_ID": "1993-036AHB", "EPOCH": "2025-12-16T02:43:57.942048", "MEAN_MOTION": 14.25166694, "ECCENTRICITY": 0.01140711, "INCLINATION": 74.1077, "RA_OF_ASC_NODE": 36.5236, "ARG_OF_PERICENTER": 19.3791, "MEAN_ANOMALY": 9.3469, "EPHEMERIS_TYPE": 0, "CLASSIFICATION_TYPE": "U", "NORAD_CAT_ID": 35038, "ELEMENT_SET_NO": 999, "REV_AT_EPOCH": 85617, "BSTAR": 0.00096319549, "MEAN_MOTION_DOT": 2.397e-05, "MEAN_MOTION_DDOT": 0}, "tle": {"line1": "1 35038U 93036AHB 25350.11386507  .00002397  00000+0  96320-3 0  9999", "line2": "2 35038  74.1077  36.5236 0114071  19.3791   9.3469 14.25166694856178"}}, "geometry": {"type": "Point", "coordinates": [18.52914174822791, -19.093574124645237]}}, {"type": "Feature", "properties": {"norad_id": 35043, "name": "COSMOS 2251 DEB", "group": "cosmos-2251-debris", "lat": -57.65656361624434, "lon": -1.6581309603550691, "alt_km": 615.9424981679804, "timestamp": "2025-12-22T23:36:21.112621+00:00", "meta": {"OBJECT_NAME": "COSMOS 2251 DEB", "OBJECT_ID": "1993-036AHG", "EPOCH": "2025-12-21T08:52:47.877312", "MEAN_MOTION": 14.7734035, "ECCENTRICITY": 0.00957897, "INCLINATION": 73.9513, "RA_OF_ASC_NODE": 28.5607, "ARG_OF_PERICENTER": 236.5232, "MEAN_ANOMALY": 122.6761, "EPHEMERIS_TYPE": 0, "CLASSIFICATION_TYPE": "U", "NORAD_CAT_ID": 35043, "ELEMENT_SET_NO": 999, "REV_AT_EPOCH": 67546, "BSTAR": 0.0026010267, "MEAN_MOTION_DOT": 0.00019965, "MEAN_MOTION_DDOT": 0}, "tle": {"line1": "1 35043U 93036AHG 25355.36999858  .00019965  00000+0  26010-2 0  9993", "line2": "2 35043  73.9513  28.5607 0095789 236.5232 122.6761 14.77340350675461"}}, "geometry": {"type": "Point", "coordinates": [-1.6581309603550691, -57.65656361624434]}}]}